[
    {
        "OBJECT_NAME": "NAVSTAR 72 (USA 258)",
        "OBJECT_ID": "2014-068A",
        "EPOCH": "2026-07-22T07:43:42.296448",
        "MEAN_MOTION": 2.00553794,
        "ECCENTRICITY": 0.00674505,
        "INCLINATION": 57.0119,
        "RA_OF_ASC_NODE": 29.6026,
        "ARG_OF_PERICENTER": 72.5356,
        "MEAN_ANOMALY": 288.2395,
        "EPHEMERIS_TYPE": 0,
        "CLASSIFICATION_TYPE": "U",
        "NORAD_CAT_ID": 40294,
        "ELEMENT_SET_NO": 999,
        "REV_AT_EPOCH": 8591,
        "BSTAR": 0,
        "MEAN_MOTION_DOT": -8e-07,
        "MEAN_MOTION_DDOT": 0
    },
    {
        "OBJECT_NAME": "NAVSTAR 73 (USA 260)",
        "OBJECT_ID": "2015-013A",
        "EPOCH": "2026-07-20T23:12:44.735616",
        "MEAN_MOTION": 2.00574219,
        "ECCENTRICITY": 0.01103224,
        "INCLINATION": 53.1254,
        "RA_OF_ASC_NODE": 202.7533,
        "ARG_OF_PERICENTER": 40.493,
        "MEAN_ANOMALY": 320.3352,
        "EPHEMERIS_TYPE": 0,
        "CLASSIFICATION_TYPE": "U",
        "NORAD_CAT_ID": 40534,
        "ELEMENT_SET_NO": 999,
        "REV_AT_EPOCH": 8250,
        "BSTAR": 0,
        "MEAN_MOTION_DOT": 7.4e-07,
        "MEAN_MOTION_DDOT": 0
    },
    {
        "OBJECT_NAME": "NAVSTAR 74 (USA 262)",
        "OBJECT_ID": "2015-033A",
        "EPOCH": "2026-07-22T02:57:00.536832",
        "MEAN_MOTION": 2.00554225,
        "ECCENTRICITY": 0.01154995,
        "INCLINATION": 53.9562,
        "RA_OF_ASC_NODE": 265.6444,
        "ARG_OF_PERICENTER": 30.3091,
        "MEAN_ANOMALY": 330.4232,
        "EPHEMERIS_TYPE": 0,
        "CLASSIFICATION_TYPE": "U",
        "NORAD_CAT_ID": 40730,
        "ELEMENT_SET_NO": 999,
        "REV_AT_EPOCH": 8069,
        "BSTAR": 0,
        "MEAN_MOTION_DOT": -2.1e-07,
        "MEAN_MOTION_DDOT": 0
    },
    {
        "OBJECT_NAME": "NAVSTAR 75 (USA 265)",
        "OBJECT_ID": "2015-062A",
        "EPOCH": "2026-07-20T16:21:37.268640",
        "MEAN_MOTION": 2.00567122,
        "ECCENTRICITY": 0.01130898,
        "INCLINATION": 56.9821,
        "RA_OF_ASC_NODE": 29.5218,
        "ARG_OF_PERICENTER": 230.8511,
        "MEAN_ANOMALY": 128.1725,
        "EPHEMERIS_TYPE": 0,
        "CLASSIFICATION_TYPE": "U",
        "NORAD_CAT_ID": 41019,
        "ELEMENT_SET_NO": 999,
        "REV_AT_EPOCH": 7850,
        "BSTAR": 0,
        "MEAN_MOTION_DOT": -8.6e-07,
        "MEAN_MOTION_DDOT": 0
    },
    {
        "OBJECT_NAME": "NAVSTAR 76 (USA 266)",
        "OBJECT_ID": "2016-007A",
        "EPOCH": "2026-07-20T18:32:46.533984",
        "MEAN_MOTION": 2.00575241,
        "ECCENTRICITY": 0.00966493,
        "INCLINATION": 55.5446,
        "RA_OF_ASC_NODE": 88.1275,
        "ARG_OF_PERICENTER": 247.5642,
        "MEAN_ANOMALY": 111.4594,
        "EPHEMERIS_TYPE": 0,
        "CLASSIFICATION_TYPE": "U",
        "NORAD_CAT_ID": 41328,
        "ELEMENT_SET_NO": 999,
        "REV_AT_EPOCH": 7651,
        "BSTAR": 0,
        "MEAN_MOTION_DOT": -5.9e-07,
        "MEAN_MOTION_DDOT": 0
    },
    {
        "OBJECT_NAME": "NAVSTAR 77 (USA 289)",
        "OBJECT_ID": "2018-109A",
        "EPOCH": "2026-07-21T17:27:19.933056",
        "MEAN_MOTION": 2.00563321,
        "ECCENTRICITY": 0.00388038,
        "INCLINATION": 55.7026,
        "RA_OF_ASC_NODE": 90.8235,
        "ARG_OF_PERICENTER": 197.034,
        "MEAN_ANOMALY": 26.2979,
        "EPHEMERIS_TYPE": 0,
        "CLASSIFICATION_TYPE": "U",
        "NORAD_CAT_ID": 43873,
        "ELEMENT_SET_NO": 999,
        "REV_AT_EPOCH": 5576,
        "BSTAR": 0,
        "MEAN_MOTION_DOT": -6.3e-07,
        "MEAN_MOTION_DDOT": 0
    },
    {
        "OBJECT_NAME": "NAVSTAR 78 (USA 293)",
        "OBJECT_ID": "2019-056A",
        "EPOCH": "2026-07-22T01:08:27.880224",
        "MEAN_MOTION": 2.00570474,
        "ECCENTRICITY": 0.00637142,
        "INCLINATION": 55.6182,
        "RA_OF_ASC_NODE": 329.757,
        "ARG_OF_PERICENTER": 198.2713,
        "MEAN_ANOMALY": 160.788,
        "EPHEMERIS_TYPE": 0,
        "CLASSIFICATION_TYPE": "U",
        "NORAD_CAT_ID": 44506,
        "ELEMENT_SET_NO": 999,
        "REV_AT_EPOCH": 5076,
        "BSTAR": 0,
        "MEAN_MOTION_DOT": -1.12e-06,
        "MEAN_MOTION_DDOT": 0
    },
    {
        "OBJECT_NAME": "NAVSTAR 79 (USA 304)",
        "OBJECT_ID": "2020-041A",
        "EPOCH": "2026-07-21T21:25:02.574624",
        "MEAN_MOTION": 2.00558017,
        "ECCENTRICITY": 0.00655572,
        "INCLINATION": 56.6933,
        "RA_OF_ASC_NODE": 27.5976,
        "ARG_OF_PERICENTER": 204.6716,
        "MEAN_ANOMALY": 339.2051,
        "EPHEMERIS_TYPE": 0,
        "CLASSIFICATION_TYPE": "U",
        "NORAD_CAT_ID": 45854,
        "ELEMENT_SET_NO": 999,
        "REV_AT_EPOCH": 4473,
        "BSTAR": 0,
        "MEAN_MOTION_DOT": -8.3e-07,
        "MEAN_MOTION_DDOT": 0
    },
    {
        "OBJECT_NAME": "NAVSTAR 80 (USA 309)",
        "OBJECT_ID": "2020-078A",
        "EPOCH": "2026-07-22T09:39:35.987904",
        "MEAN_MOTION": 2.00565122,
        "ECCENTRICITY": 0.00747076,
        "INCLINATION": 53.9765,
        "RA_OF_ASC_NODE": 209.35,
        "ARG_OF_PERICENTER": 207.9626,
        "MEAN_ANOMALY": 321.8106,
        "EPHEMERIS_TYPE": 0,
        "CLASSIFICATION_TYPE": "U",
        "NORAD_CAT_ID": 46826,
        "ELEMENT_SET_NO": 999,
        "REV_AT_EPOCH": 4221,
        "BSTAR": 0,
        "MEAN_MOTION_DOT": 8.4e-07,
        "MEAN_MOTION_DDOT": 0
    },
    {
        "OBJECT_NAME": "NAVSTAR 81 (USA 319)",
        "OBJECT_ID": "2021-054A",
        "EPOCH": "2026-07-22T10:04:40.243008",
        "MEAN_MOTION": 2.00567016,
        "ECCENTRICITY": 0.0026666,
        "INCLINATION": 55.1554,
        "RA_OF_ASC_NODE": 331.0432,
        "ARG_OF_PERICENTER": 228.6022,
        "MEAN_ANOMALY": 140.0987,
        "EPHEMERIS_TYPE": 0,
        "CLASSIFICATION_TYPE": "U",
        "NORAD_CAT_ID": 48859,
        "ELEMENT_SET_NO": 999,
        "REV_AT_EPOCH": 3746,
        "BSTAR": 0,
        "MEAN_MOTION_DOT": -1.13e-06,
        "MEAN_MOTION_DDOT": 0
    },
    {
        "OBJECT_NAME": "NAVSTAR 82 (USA 343)",
        "OBJECT_ID": "2023-009A",
        "EPOCH": "2026-07-20T14:32:11.706720",
        "MEAN_MOTION": 2.00569363,
        "ECCENTRICITY": 0.00052868,
        "INCLINATION": 55.1257,
        "RA_OF_ASC_NODE": 147.2053,
        "ARG_OF_PERICENTER": 339.0004,
        "MEAN_ANOMALY": 198.438,
        "EPHEMERIS_TYPE": 0,
        "CLASSIFICATION_TYPE": "U",
        "NORAD_CAT_ID": 55268,
        "ELEMENT_SET_NO": 999,
        "REV_AT_EPOCH": 2591,
        "BSTAR": 0,
        "MEAN_MOTION_DOT": 2.9e-07,
        "MEAN_MOTION_DDOT": 0
    },
    {
        "OBJECT_NAME": "NAVSTAR 83 (USA 440)",
        "OBJECT_ID": "2024-242A",
        "EPOCH": "2026-07-19T17:19:15.611808",
        "MEAN_MOTION": 2.00572353,
        "ECCENTRICITY": 0.00179964,
        "INCLINATION": 54.8338,
        "RA_OF_ASC_NODE": 332.8621,
        "ARG_OF_PERICENTER": 4.354,
        "MEAN_ANOMALY": 337.1791,
        "EPHEMERIS_TYPE": 0,
        "CLASSIFICATION_TYPE": "U",
        "NORAD_CAT_ID": 62339,
        "ELEMENT_SET_NO": 999,
        "REV_AT_EPOCH": 1190,
        "BSTAR": 0,
        "MEAN_MOTION_DOT": -1.09e-06,
        "MEAN_MOTION_DDOT": 0
    },
    {
        "OBJECT_NAME": "NAVSTAR 84 (USA 545)",
        "OBJECT_ID": "2025-116A",
        "EPOCH": "2026-07-21T05:52:26.666112",
        "MEAN_MOTION": 2.00573612,
        "ECCENTRICITY": 0.00084109,
        "INCLINATION": 55.258,
        "RA_OF_ASC_NODE": 29.7605,
        "ARG_OF_PERICENTER": 339.2727,
        "MEAN_ANOMALY": 205.1759,
        "EPHEMERIS_TYPE": 0,
        "CLASSIFICATION_TYPE": "U",
        "NORAD_CAT_ID": 64202,
        "ELEMENT_SET_NO": 999,
        "REV_AT_EPOCH": 855,
        "BSTAR": 0,
        "MEAN_MOTION_DOT": -8.8e-07,
        "MEAN_MOTION_DDOT": 0
    }
]
